COSMO-SKYMED 1          
1 31598U 07023A   26188.85382309  .00001424  00000+0  12832-3 0  9990
2 31598  97.8849  20.8846 0000980  90.6607 269.4727 14.97198359 32880
COMS 1                  
1 36744U 10032A   26188.00140631 -.00000175  00000+0  00000+0 0  9992
2 36744   4.8529  75.1185 0011440  14.6993 190.2555  0.99169409 51283
CBERS 4                 
1 40336U 14079A   26188.87805314 -.00000118  00000+0 -26456-4 0  9996
2 40336  98.3517 245.0596 0001094  49.1643 310.9637 14.35514215606926
CAS500-1                
1 47932U 21022A   26188.86355449  .00003966  00000+0  18656-3 0  9993
2 47932  97.3874  83.6959 0004374 194.3283 165.7829 15.20127398293902
CO3D 3                  
1 64900U 25156B   26188.72434911  .00003214  00000+0  15154-3 0  9992
2 64900  97.4331 267.1222 0001819 101.1097 259.0343 15.20196410 52651
CO3D 4                  
1 64901U 25156C   26188.72449411  .00001379  00000+0  66801-4 0  9990
2 64901  97.4333 267.1220 0001098 167.6566 192.4696 15.20209399 52651
CO3D 2                  
1 64902U 25156D   26188.75697497  .00003173  00000+0  14963-3 0  9998
2 64902  97.4331 267.0531 0001380  89.6839 270.4554 15.20205906 52654
CO3D 1                  
1 64903U 25156E   26188.75712426  .00003450  00000+0  16238-3 0  9994
2 64903  97.4330 267.0533 0001328 100.9585 259.1800 15.20210927 52650
CAS500-3                
1 66655U 25274F   26188.78765669  .00001044  00000+0  11856-3 0  9999
2 66655  97.7440 116.3702 0006715  57.7642 302.4225 14.88372231 33217
CAS500-2                
1 69013U 26100AK  26188.68203485  .00004065  00000+0  18713-3 0  9996
2 69013  97.3874  86.1516 0008340 323.2035  36.8628 15.20843539  9922
