{
 "generated_at": "2026-07-08T07:29:27Z",
 "sources": [
  {
   "name": "CelesTrak",
   "url": "https://celestrak.org/NORAD/elements/",
   "license": "frei verfügbar; Attribution. Ursprünglich USSPACECOM/Space-Track."
  },
  {
   "name": "GCAT (J. McDowell, planet4589.org)",
   "url": "https://planet4589.org/space/gcat/",
   "license": "CC-BY 4.0"
  }
 ],
 "satellites": [
  {
   "norad": 47932,
   "name": "CAS500-1",
   "intl": "2021-022A",
   "group": "resource",
   "gcat": {
    "class": "C",
    "category": "IMG",
    "owner": "KARI",
    "state": "KR"
   },
   "omm": {
    "OBJECT_NAME": "CAS500-1",
    "OBJECT_ID": "2021-022A",
    "EPOCH": "2026-07-07T20:43:31.107936",
    "MEAN_MOTION": 15.20127398,
    "ECCENTRICITY": 0.0004374,
    "INCLINATION": 97.3874,
    "RA_OF_ASC_NODE": 83.6959,
    "ARG_OF_PERICENTER": 194.3283,
    "MEAN_ANOMALY": 165.7829,
    "EPHEMERIS_TYPE": 0,
    "CLASSIFICATION_TYPE": "U",
    "NORAD_CAT_ID": 47932,
    "ELEMENT_SET_NO": 999,
    "REV_AT_EPOCH": 29390,
    "BSTAR": 0.00018656,
    "MEAN_MOTION_DOT": 0.00003966,
    "MEAN_MOTION_DDOT": 0
   }
  },
  {
   "norad": 69013,
   "name": "CAS500-2",
   "intl": "2026-100AK",
   "group": "resource",
   "gcat": {
    "class": "C",
    "category": "TECH",
    "owner": "KAIST",
    "state": "KR"
   },
   "omm": {
    "OBJECT_NAME": "CAS500-2",
    "OBJECT_ID": "2026-100AK",
    "EPOCH": "2026-07-07T16:22:07.811040",
    "MEAN_MOTION": 15.20843539,
    "ECCENTRICITY": 0.000834,
    "INCLINATION": 97.3874,
    "RA_OF_ASC_NODE": 86.1516,
    "ARG_OF_PERICENTER": 323.2035,
    "MEAN_ANOMALY": 36.8628,
    "EPHEMERIS_TYPE": 0,
    "CLASSIFICATION_TYPE": "U",
    "NORAD_CAT_ID": 69013,
    "ELEMENT_SET_NO": 999,
    "REV_AT_EPOCH": 992,
    "BSTAR": 0.00018713,
    "MEAN_MOTION_DOT": 0.00004065,
    "MEAN_MOTION_DDOT": 0
   }
  },
  {
   "norad": 66655,
   "name": "CAS500-3",
   "intl": "2025-274F",
   "group": "resource",
   "gcat": {
    "class": "B",
    "category": "IMG",
    "owner": "KAIST",
    "state": "KR"
   },
   "omm": {
    "OBJECT_NAME": "CAS500-3",
    "OBJECT_ID": "2025-274F",
    "EPOCH": "2026-07-07T18:54:13.538016",
    "MEAN_MOTION": 14.88372231,
    "ECCENTRICITY": 0.0006715,
    "INCLINATION": 97.744,
    "RA_OF_ASC_NODE": 116.3702,
    "ARG_OF_PERICENTER": 57.7642,
    "MEAN_ANOMALY": 302.4225,
    "EPHEMERIS_TYPE": 0,
    "CLASSIFICATION_TYPE": "U",
    "NORAD_CAT_ID": 66655,
    "ELEMENT_SET_NO": 999,
    "REV_AT_EPOCH": 3321,
    "BSTAR": 0.00011856,
    "MEAN_MOTION_DOT": 0.00001044,
    "MEAN_MOTION_DDOT": 0
   }
  },
  {
   "norad": 40336,
   "name": "CBERS 4",
   "intl": "2014-079A",
   "group": "resource",
   "gcat": {
    "class": "C",
    "category": "IMG",
    "owner": "ZZWYZ/INPE",
    "state": "CN"
   },
   "omm": {
    "OBJECT_NAME": "CBERS 4",
    "OBJECT_ID": "2014-079A",
    "EPOCH": "2026-07-07T21:04:23.791296",
    "MEAN_MOTION": 14.35514215,
    "ECCENTRICITY": 0.0001094,
    "INCLINATION": 98.3517,
    "RA_OF_ASC_NODE": 245.0596,
    "ARG_OF_PERICENTER": 49.1643,
    "MEAN_ANOMALY": 310.9637,
    "EPHEMERIS_TYPE": 0,
    "CLASSIFICATION_TYPE": "U",
    "NORAD_CAT_ID": 40336,
    "ELEMENT_SET_NO": 999,
    "REV_AT_EPOCH": 60692,
    "BSTAR": -0.000026456,
    "MEAN_MOTION_DOT": -0.00000118,
    "MEAN_MOTION_DDOT": 0
   }
  },
  {
   "norad": 64903,
   "name": "CO3D 1",
   "intl": "2025-156E",
   "group": "resource",
   "gcat": {
    "class": "C",
    "category": "SCI",
    "owner": "CNES",
    "state": "F"
   },
   "omm": {
    "OBJECT_NAME": "CO3D 1",
    "OBJECT_ID": "2025-156E",
    "EPOCH": "2026-07-07T18:10:15.536064",
    "MEAN_MOTION": 15.20210927,
    "ECCENTRICITY": 0.0001328,
    "INCLINATION": 97.433,
    "RA_OF_ASC_NODE": 267.0533,
    "ARG_OF_PERICENTER": 100.9585,
    "MEAN_ANOMALY": 259.18,
    "EPHEMERIS_TYPE": 0,
    "CLASSIFICATION_TYPE": "U",
    "NORAD_CAT_ID": 64903,
    "ELEMENT_SET_NO": 999,
    "REV_AT_EPOCH": 5265,
    "BSTAR": 0.00016238,
    "MEAN_MOTION_DOT": 0.0000345,
    "MEAN_MOTION_DDOT": 0
   }
  },
  {
   "norad": 64902,
   "name": "CO3D 2",
   "intl": "2025-156D",
   "group": "resource",
   "gcat": {
    "class": "C",
    "category": "SCI",
    "owner": "CNES",
    "state": "F"
   },
   "omm": {
    "OBJECT_NAME": "CO3D 2",
    "OBJECT_ID": "2025-156D",
    "EPOCH": "2026-07-07T18:10:02.637408",
    "MEAN_MOTION": 15.20205906,
    "ECCENTRICITY": 0.000138,
    "INCLINATION": 97.4331,
    "RA_OF_ASC_NODE": 267.0531,
    "ARG_OF_PERICENTER": 89.6839,
    "MEAN_ANOMALY": 270.4554,
    "EPHEMERIS_TYPE": 0,
    "CLASSIFICATION_TYPE": "U",
    "NORAD_CAT_ID": 64902,
    "ELEMENT_SET_NO": 999,
    "REV_AT_EPOCH": 5265,
    "BSTAR": 0.00014963,
    "MEAN_MOTION_DOT": 0.00003173,
    "MEAN_MOTION_DDOT": 0
   }
  },
  {
   "norad": 64900,
   "name": "CO3D 3",
   "intl": "2025-156B",
   "group": "resource",
   "gcat": {
    "class": "C",
    "category": "SCI",
    "owner": "CNES",
    "state": "F"
   },
   "omm": {
    "OBJECT_NAME": "CO3D 3",
    "OBJECT_ID": "2025-156B",
    "EPOCH": "2026-07-07T17:23:03.763104",
    "MEAN_MOTION": 15.2019641,
    "ECCENTRICITY": 0.0001819,
    "INCLINATION": 97.4331,
    "RA_OF_ASC_NODE": 267.1222,
    "ARG_OF_PERICENTER": 101.1097,
    "MEAN_ANOMALY": 259.0343,
    "EPHEMERIS_TYPE": 0,
    "CLASSIFICATION_TYPE": "U",
    "NORAD_CAT_ID": 64900,
    "ELEMENT_SET_NO": 999,
    "REV_AT_EPOCH": 5265,
    "BSTAR": 0.00015154,
    "MEAN_MOTION_DOT": 0.00003214,
    "MEAN_MOTION_DDOT": 0
   }
  },
  {
   "norad": 64901,
   "name": "CO3D 4",
   "intl": "2025-156C",
   "group": "resource",
   "gcat": {
    "class": "C",
    "category": "SCI",
    "owner": "CNES",
    "state": "F"
   },
   "omm": {
    "OBJECT_NAME": "CO3D 4",
    "OBJECT_ID": "2025-156C",
    "EPOCH": "2026-07-07T17:23:16.291104",
    "MEAN_MOTION": 15.20209399,
    "ECCENTRICITY": 0.0001098,
    "INCLINATION": 97.4333,
    "RA_OF_ASC_NODE": 267.122,
    "ARG_OF_PERICENTER": 167.6566,
    "MEAN_ANOMALY": 192.4696,
    "EPHEMERIS_TYPE": 0,
    "CLASSIFICATION_TYPE": "U",
    "NORAD_CAT_ID": 64901,
    "ELEMENT_SET_NO": 999,
    "REV_AT_EPOCH": 5265,
    "BSTAR": 0.000066801,
    "MEAN_MOTION_DOT": 0.00001379,
    "MEAN_MOTION_DDOT": 0
   }
  },
  {
   "norad": 36744,
   "name": "COMS 1",
   "intl": "2010-032A",
   "group": "weather",
   "gcat": {
    "class": null,
    "category": null,
    "owner": null,
    "state": null
   },
   "omm": {
    "OBJECT_NAME": "COMS 1",
    "OBJECT_ID": "2010-032A",
    "EPOCH": "2026-07-07T00:02:01.505184",
    "MEAN_MOTION": 0.99169409,
    "ECCENTRICITY": 0.00114407,
    "INCLINATION": 4.8529,
    "RA_OF_ASC_NODE": 75.1185,
    "ARG_OF_PERICENTER": 14.6993,
    "MEAN_ANOMALY": 190.2555,
    "EPHEMERIS_TYPE": 0,
    "CLASSIFICATION_TYPE": "U",
    "NORAD_CAT_ID": 36744,
    "ELEMENT_SET_NO": 999,
    "REV_AT_EPOCH": 5128,
    "BSTAR": 0,
    "MEAN_MOTION_DOT": -0.00000175,
    "MEAN_MOTION_DDOT": 0
   }
  },
  {
   "norad": 31598,
   "name": "COSMO-SKYMED 1",
   "intl": "2007-023A",
   "group": "resource",
   "gcat": {
    "class": "D",
    "category": "IMG-R",
    "owner": "ASI",
    "state": "I"
   },
   "omm": {
    "OBJECT_NAME": "COSMO-SKYMED 1",
    "OBJECT_ID": "2007-023A",
    "EPOCH": "2026-07-07T20:29:30.314976",
    "MEAN_MOTION": 14.97198359,
    "ECCENTRICITY": 0.000098,
    "INCLINATION": 97.8849,
    "RA_OF_ASC_NODE": 20.8846,
    "ARG_OF_PERICENTER": 90.6607,
    "MEAN_ANOMALY": 269.4727,
    "EPHEMERIS_TYPE": 0,
    "CLASSIFICATION_TYPE": "U",
    "NORAD_CAT_ID": 31598,
    "ELEMENT_SET_NO": 999,
    "REV_AT_EPOCH": 3288,
    "BSTAR": 0.00012832,
    "MEAN_MOTION_DOT": 0.00001424,
    "MEAN_MOTION_DDOT": 0
   }
  }
 ]
}
